STARLINK-1434           
1 45712U 20035BH  26068.24137979  .00054112  00000+0  20295-2 0  9995
2 45712  53.0547  22.1128 0005343  88.0400 272.1210 15.26724568319325
STARLINK-31349          
1 59317U 24056X   26068.48338253 -.00000207  00000+0  20049-5 0  9999
2 59317  42.9995 231.7936 0001108 266.9092  93.1633 15.27574483111194
